{
    "links": {
        "self": "http://www.neowsapp.com/rest/v1/neo/54075316?api_key=iIulBulltgU6a56xZRHN4H3l9WmuAYTsLGpBGhQ2"
    },
    "id": "54075316",
    "neo_reference_id": "54075316",
    "name": "(2020 UQ1)",
    "designation": "2020 UQ1",
    "nasa_jpl_url": "http://ssd.jpl.nasa.gov/sbdb.cgi?sstr=54075316",
    "absolute_magnitude_h": 22.785,
    "estimated_diameter": {
        "kilometers": {
            "estimated_diameter_min": 0.0737148484,
            "estimated_diameter_max": 0.1648314119
        },
        "meters": {
            "estimated_diameter_min": 73.7148483816,
            "estimated_diameter_max": 164.8314119325
        },
        "miles": {
            "estimated_diameter_min": 0.0458042691,
            "estimated_diameter_max": 0.1024214593
        },
        "feet": {
            "estimated_diameter_min": 241.8466231644,
            "estimated_diameter_max": 540.7854895245
        }
    },
    "is_potentially_hazardous_asteroid": false,
    "close_approach_data": [
        {
            "close_approach_date": "2020-05-01",
            "close_approach_date_full": "2020-May-01 06:14",
            "epoch_date_close_approach": 1588313640000,
            "relative_velocity": {
                "kilometers_per_second": "21.6701445792",
                "kilometers_per_hour": "78012.5204852878",
                "miles_per_hour": "48473.9464093167"
            },
            "miss_distance": {
                "astronomical": "0.4306651883",
                "lunar": "167.5287582487",
                "kilometers": "64426594.852828921",
                "miles": "40032829.6945682698"
            },
            "orbiting_body": "Earth"
        },
        {
            "close_approach_date": "2020-10-20",
            "close_approach_date_full": "2020-Oct-20 16:46",
            "epoch_date_close_approach": 1603212360000,
            "relative_velocity": {
                "kilometers_per_second": "23.814273522",
                "kilometers_per_hour": "85731.3846791154",
                "miles_per_hour": "53270.1484413092"
            },
            "miss_distance": {
                "astronomical": "0.0731852518",
                "lunar": "28.4690629502",
                "kilometers": "10948357.784693666",
                "miles": "6802994.0683819508"
            },
            "orbiting_body": "Earth"
        }
    ],
    "orbital_data": {
        "orbit_id": "5",
        "orbit_determination_date": "2020-10-24 07:47:14",
        "first_observation_date": "2020-10-15",
        "last_observation_date": "2020-10-23",
        "data_arc_in_days": 8,
        "observations_used": 44,
        "orbit_uncertainty": "8",
        "minimum_orbit_intersection": ".0522982",
        "jupiter_tisserand_invariant": "4.530",
        "epoch_osculation": "2459140.5",
        "eccentricity": ".3024068440878497",
        "semi_major_axis": "1.358378919201355",
        "inclination": "44.1447670254434",
        "ascending_node_longitude": "30.12035300066109",
        "orbital_period": "578.2688873087609",
        "perihelion_distance": ".9475958371702091",
        "perihelion_argument": "305.4988614039819",
        "aphelion_distance": "1.769162001232501",
        "perihelion_time": "2459095.108938074062",
        "mean_anomaly": "28.25810388898319",
        "mean_motion": ".6225477591841831",
        "equinox": "J2000",
        "orbit_class": {
            "orbit_class_type": "APO",
            "orbit_class_description": "Near-Earth asteroid orbits which cross the Earth’s orbit similar to that of 1862 Apollo",
            "orbit_class_range": "a (semi-major axis) > 1.0 AU; q (perihelion) < 1.017 AU"
        }
    },
    "is_sentry_object": false
}